DTUSAT                  
1 27842U 03031C   13057.58533257  .00000097  00000-0  64490-4 0  6208
2 27842  98.6927  68.4964 0009610 178.1727 328.5072 14.21401600501149
CUTE-1 (CO-55)          
1 27844U 03031E   13058.02096898  .00000136  00000-0  82828-4 0  5898
2 27844  98.7037  68.6914 0009573 200.7122 217.4897 14.21163528501088
QUAKESAT                
1 27845U 03031F   13058.05659049  .00000194  00000-0  10987-3 0  6368
2 27845  98.7130  68.7161 0008332 221.3286 171.9161 14.20926348500959
AAU CUBESAT             
1 27846U 03031G   13057.99024300  .00000102  00000-0  66754-4 0  5044
2 27846  98.6925  68.8847 0009642 177.0242 235.9998 14.21400022501202
CANX-1                  
1 27847U 03031H   13058.02376662  .00000092  00000-0  62310-4 0  4974
2 27847  98.6928  68.8860 0009648 177.1215 243.0490 14.21368227501159
CUBESAT XI-IV (CO-57)   
1 27848U 03031J   13058.51067025  .00000121  00000-0  75943-4 0  5362
2 27848  98.7120  68.6295 0009404 205.0707 301.8948 14.20896380501080
UWE-1                   
1 28892U 05043C   13058.64328054  .00000389  00000-0  88201-4 0  4594
2 28892  97.8796 277.8724 0018285  69.1920 323.8741 14.60949685391064
CUBESAT XI-V (CO-58)    
1 28895U 05043F   13058.64894479  .00000388  00000-0  87922-4 0  4156
2 28895  97.8845 279.2429 0018820  69.6529 323.3348 14.60974499390951
NCUBE-2                 
1 28897U 05043H   13058.58438990  .00000421  00000-0  94127-4 0  9915
2 28897  97.8825 279.1151 0018152  69.0517 324.7182 14.61233868383267
CSTB1                   
1 31122U 07012F   13058.01447796  .00000811  00000-0  18254-3 0  7502
2 31122  97.8658  66.6971 0083603  18.2365  47.3351 14.56829158311696
MAST                    
1 31126U 07012K   13058.07984505  .00000466  00000-0  11330-3 0  6936
2 31126  97.8788  60.3167 0093995  36.9375  33.6905 14.54441672311316
LIBERTAD-1              
1 31128U 07012M   13058.51798649  .00000603  00000-0  14608-3 0  7631
2 31128  97.8941  56.9307 0101905  50.5403  94.4295 14.53227416311056
POLYSAT CP3             
1 31129U 07012N   13057.91109839  .00000635  00000-0  15251-3 0  4011
2 31129  97.8936  56.8219 0101339  51.3193   9.4581 14.53471494310979
CAPE1                   
1 31130U 07012P   13058.03944432  .00000635  00000-0  15291-3 0  7054
2 31130  97.8939  56.5995 0101828  51.7625 344.8892 14.53311841310788
POLYSAT CP4             
1 31132U 07012Q   13057.98466400  .00000541  00000-0  12627-3 0  7060
2 31132  97.8638  65.7065 0084320  19.1656  32.7485 14.56334158311539
NTS (CANX-6)            
1 32784U 08021B   13058.18449676  .00000633  00000-0  84431-4 0  5630
2 32784  97.7645 117.5487 0014051 308.5358 119.4391 14.82865070261479
CUTE-1.7+APD II (CO-65) 
1 32785U 08021C   13058.18229581  .00000745  00000-0  96542-4 0  5632
2 32785  97.7655 118.8004 0013010 310.1168 114.6760 14.83602840261564
COMPASS-1               
1 32787U 08021E   13058.88592317  .00001412  00000-0  17150-3 0  5551
2 32787  97.7659 120.2500 0013381 304.3189 173.0295 14.85017047261740
AAUSAT-II               
1 32788U 08021F   13058.17589069  .00001397  00000-0  16810-3 0  5457
2 32788  97.7667 120.1021 0012994 306.5540 116.9945 14.85434220261677
DELFI-C3 (DO-64)        
1 32789U 08021G   13058.23524485  .00002952  00000-0  32987-3 0  5693
2 32789  97.7806 123.3242 0012620 300.1976  91.5250 14.87655736261779
CANX-2                  
1 32790U 08021H   13058.85237333  .00000740  00000-0  96200-4 0  5575
2 32790  97.7625 119.0049 0013668 308.3326 164.0246 14.83494798261630
SEEDS II (CO-66)        
1 32791U 08021J   13058.17268498  .00001016  00000-0  12744-3 0  5417
2 32791  97.7664 119.0512 0013909 307.7520 113.4130 14.84247941261554
SWISSCUBE               
1 35932U 09051B   13057.82414654  .00000405  00000-0  10825-3 0  9647
2 35932  98.3491 165.6987 0008401  50.1429 310.0505 14.53390178181841
BEESAT                  
1 35933U 09051C   13057.82180096  .00000375  00000-0  10010-3 0  2508
2 35933  98.3472 166.2345 0006767  66.0797  79.9253 14.53815284181901
UWE-2                   
1 35934U 09051D   13058.86779854  .00000383  00000-0  10232-3 0  6071
2 35934  98.3429 166.7392 0007430  63.3948  83.7769 14.53695600182057
ITUPSAT 1               
1 35935U 09051E   13057.81325551  .00000366  00000-0  99364-4 0  1572
2 35935  98.3564 166.4071 0008908  51.2831 308.9160 14.53180851181825
TISAT 1                 
1 36799U 10035E   13058.82151482  .00001137  00000-0  14678-3 0  8463
2 36799  98.0404 142.8824 0015680  65.7198 294.5627 14.82885258142368
DICE-F                  
1 37851U 11061B   13058.49267881  .00002114  00000-0  17131-3 0  4376
2 37851 101.7203 221.4791 0241238 342.2164  88.0945 14.81905264 72179
DICE-Y                  
1 37852U 11061C   13056.48815309  .00001857  00000-0  15031-3 0  4345
2 37852 101.7190 218.8675 0238988 347.1609  12.3563 14.82598211 71897
RAX-2                   
1 37853U 11061D   13058.14027521  .00002015  00000-0  16298-3 0  4378
2 37853 101.7137 220.8926 0239055 342.6009 125.0415 14.82396767 72139
AUBIESAT-1              
1 37854U 11061E   13058.46930280  .00002043  00000-0  16211-3 0  4364
2 37854 101.7169 222.0232 0239322 340.5538  51.1029 14.83003716 72196
M-CUBED & EXP-1 PRIME   
1 37855U 11061F   13058.45098054  .00002104  00000-0  16734-3 0  4311
2 37855 101.7175 221.8339 0240135 340.9213  51.1247 14.82729794 72188
E-ST@R                  
1 38079U 12006C   13058.48175104  .00036138  32783-5  78083-3 0  9283
2 38079  69.4796  83.4291 0663404 280.7631 199.6334 14.35038157 53940
2012-006D               
1 38080U 12006D   13058.38686084  .00033477  00000-0  72310-3 0  8605
2 38080  69.4758  83.3787 0660050 281.2924  71.4785 14.35315495 53933
MASAT 1                 
1 38081U 12006E   13058.49237959  .00035947  32758-5  79096-3 0  9008
2 38081  69.4802  83.4139 0661287 281.0933  71.6617 14.35123072 53942
XATCOBEO                
1 38082U 12006F   13058.47180981  .00042640  33930-5  89513-3 0  9566
2 38082  69.4815  79.9909 0637033 278.7085  74.2455 14.41149718 54048
PW-SAT                  
1 38083U 12006G   13058.50548343  .00039436  33347-5  85168-3 0   633
2 38083  69.4833  81.4908 0647550 279.6659  73.2006 14.38375854 54003
2012-006H               
1 38084U 12006H   13058.51689566  .00033828  32488-5  73401-3 0  9469
2 38084  69.4824  84.3147 0667210 281.2147  71.4822 14.34178643 53926
2012-006J               
1 38085U 12006J   13058.46288637  .00038514  32890-5  82987-3 0  8617
2 38085  69.4865  84.9038 0670975 281.5162  71.1537 14.33447979 53907
RAIKO                   
1 38852U 98067CN  13058.88339686  .00035934  00000-0  40744-3 0  1543
2 38852  51.6415 285.9266 0012944 308.8639  51.1199 15.61924032 22705
FITSAT-1 (NIWAKA)       
1 38853U 98067CP  13057.63385678  .00038467  00000-0  39950-3 0  1516
2 38853  51.6524 291.0844 0008563 314.9148  45.1108 15.64197671 22585
TECHEDSAT               
1 38854U 98067CQ  13058.86416700  .00089278  00000-0  70112-3 0  1739
2 38854  51.6393 282.0319 0007356 311.3824  48.6540 15.70738815 22809
F-1                     
1 38855U 98067CR  13058.82864049  .00083973  00000-0  68259-3 0  1756
2 38855  51.6388 282.5389 0007492 313.3248  46.7124 15.69934742 22687
WE-WISH                 
1 38856U 98067CS  13058.78329433  .00451948  92515-4  11654-2 0  2096
2 38856  51.6334 275.3736 0008925 267.4314  92.5784 15.94536470 22786
